{
  "type": "FeatureCollection",
  "features": [
    {
      "type": "Feature",
      "properties": {
        "OBJECT_NAME": "TIANMU-1 17",
        "OBJECT_ID": "2024-004C",
        "EPOCH": "2025-11-30T05:13:58.334592",
        "MEAN_MOTION": 15.24221455,
        "ECCENTRICITY": 0.0004581,
        "INCLINATION": 97.4607,
        "RA_OF_ASC_NODE": 155.5404,
        "ARG_OF_PERICENTER": 350.8001,
        "MEAN_ANOMALY": 9.3152,
        "EPHEMERIS_TYPE": 0,
        "CLASSIFICATION_TYPE": "U",
        "NORAD_CAT_ID": 58702,
        "ELEMENT_SET_NO": 999,
        "REV_AT_EPOCH": 10543,
        "BSTAR": 0.0003288,
        "MEAN_MOTION_DOT": 7.948e-05,
        "MEAN_MOTION_DDOT": 0,
        "norad_id": 58702,
        "name": "TIANMU-1 17",
        "group": "weather",
        "longitude_deg": NaN,
        "latitude_deg": NaN,
        "alt_km": NaN,
        "orbit_class": "HEO",
        "timestamp": "2025-11-30T09:33:02.549458+00:00"
      },
      "geometry": {
        "type": "Point",
        "coordinates": [
          NaN,
          NaN
        ]
      }
    },
    {
      "type": "Feature",
      "properties": {
        "OBJECT_NAME": "TIANMU-1 18",
        "OBJECT_ID": "2024-004D",
        "EPOCH": "2025-11-30T04:49:49.821312",
        "MEAN_MOTION": 15.24214922,
        "ECCENTRICITY": 0.0003935,
        "INCLINATION": 97.4625,
        "RA_OF_ASC_NODE": 155.7162,
        "ARG_OF_PERICENTER": 352.2641,
        "MEAN_ANOMALY": 7.8535,
        "EPHEMERIS_TYPE": 0,
        "CLASSIFICATION_TYPE": "U",
        "NORAD_CAT_ID": 58703,
        "ELEMENT_SET_NO": 999,
        "REV_AT_EPOCH": 10543,
        "BSTAR": 0.00033865,
        "MEAN_MOTION_DOT": 8.187e-05,
        "MEAN_MOTION_DDOT": 0,
        "norad_id": 58703,
        "name": "TIANMU-1 18",
        "group": "weather",
        "longitude_deg": NaN,
        "latitude_deg": NaN,
        "alt_km": NaN,
        "orbit_class": "HEO",
        "timestamp": "2025-11-30T09:33:02.549465+00:00"
      },
      "geometry": {
        "type": "Point",
        "coordinates": [
          NaN,
          NaN
        ]
      }
    },
    {
      "type": "Feature",
      "properties": {
        "OBJECT_NAME": "INSAT-3DS",
        "OBJECT_ID": "2024-033A",
        "EPOCH": "2025-11-29T22:49:25.701024",
        "MEAN_MOTION": 1.00270338,
        "ECCENTRICITY": 0.0001462,
        "INCLINATION": 0.0176,
        "RA_OF_ASC_NODE": 249.8829,
        "ARG_OF_PERICENTER": 0.2965,
        "MEAN_ANOMALY": 243.3977,
        "EPHEMERIS_TYPE": 0,
        "CLASSIFICATION_TYPE": "U",
        "NORAD_CAT_ID": 58990,
        "ELEMENT_SET_NO": 999,
        "REV_AT_EPOCH": 4507,
        "BSTAR": 0,
        "MEAN_MOTION_DOT": -1.35e-06,
        "MEAN_MOTION_DDOT": 0,
        "norad_id": 58990,
        "name": "INSAT-3DS",
        "group": "weather",
        "longitude_deg": NaN,
        "latitude_deg": NaN,
        "alt_km": NaN,
        "orbit_class": "HEO",
        "timestamp": "2025-11-30T09:33:02.551002+00:00"
      },
      "geometry": {
        "type": "Point",
        "coordinates": [
          NaN,
          NaN
        ]
      }
    },
    {
      "type": "Feature",
      "properties": {
        "OBJECT_NAME": "METEOR-M2 4",
        "OBJECT_ID": "2024-039A",
        "EPOCH": "2025-11-30T04:25:00.164352",
        "MEAN_MOTION": 14.22398124,
        "ECCENTRICITY": 0.0007695,
        "INCLINATION": 98.6749,
        "RA_OF_ASC_NODE": 291.291,
        "ARG_OF_PERICENTER": 33.0963,
        "MEAN_ANOMALY": 327.0695,
        "EPHEMERIS_TYPE": 0,
        "CLASSIFICATION_TYPE": "U",
        "NORAD_CAT_ID": 59051,
        "ELEMENT_SET_NO": 999,
        "REV_AT_EPOCH": 9097,
        "BSTAR": 4.4707e-05,
        "MEAN_MOTION_DOT": 5.6e-07,
        "MEAN_MOTION_DDOT": 0,
        "norad_id": 59051,
        "name": "METEOR-M2 4",
        "group": "weather",
        "longitude_deg": NaN,
        "latitude_deg": NaN,
        "alt_km": NaN,
        "orbit_class": "HEO",
        "timestamp": "2025-11-30T09:33:02.551342+00:00"
      },
      "geometry": {
        "type": "Point",
        "coordinates": [
          NaN,
          NaN
        ]
      }
    },
    {
      "type": "Feature",
      "properties": {
        "OBJECT_NAME": "GOES 19",
        "OBJECT_ID": "2024-119A",
        "EPOCH": "2025-11-30T01:30:02.814912",
        "MEAN_MOTION": 1.00269973,
        "ECCENTRICITY": 0.0001181,
        "INCLINATION": 0.0051,
        "RA_OF_ASC_NODE": 67.7166,
        "ARG_OF_PERICENTER": 231.4963,
        "MEAN_ANOMALY": 77.3198,
        "EPHEMERIS_TYPE": 0,
        "CLASSIFICATION_TYPE": "U",
        "NORAD_CAT_ID": 60133,
        "ELEMENT_SET_NO": 999,
        "REV_AT_EPOCH": 496,
        "BSTAR": 0,
        "MEAN_MOTION_DOT": -2.27e-06,
        "MEAN_MOTION_DDOT": 0,
        "norad_id": 60133,
        "name": "GOES 19",
        "group": "weather",
        "longitude_deg": NaN,
        "latitude_deg": NaN,
        "alt_km": NaN,
        "orbit_class": "HEO",
        "timestamp": "2025-11-30T09:33:02.557674+00:00"
      },
      "geometry": {
        "type": "Point",
        "coordinates": [
          NaN,
          NaN
        ]
      }
    },
    {
      "type": "Feature",
      "properties": {
        "OBJECT_NAME": "FENGYUN 3H",
        "OBJECT_ID": "2025-219A",
        "EPOCH": "2025-11-30T02:45:51.837120",
        "MEAN_MOTION": 14.19899054,
        "ECCENTRICITY": 6.94e-05,
        "INCLINATION": 98.6565,
        "RA_OF_ASC_NODE": 273.9809,
        "ARG_OF_PERICENTER": 65.7654,
        "MEAN_ANOMALY": 294.3595,
        "EPHEMERIS_TYPE": 0,
        "CLASSIFICATION_TYPE": "U",
        "NORAD_CAT_ID": 65815,
        "ELEMENT_SET_NO": 999,
        "REV_AT_EPOCH": 913,
        "BSTAR": 8.0254e-05,
        "MEAN_MOTION_DOT": 1.27e-06,
        "MEAN_MOTION_DDOT": 0,
        "norad_id": 65815,
        "name": "FENGYUN 3H",
        "group": "weather",
        "longitude_deg": NaN,
        "latitude_deg": NaN,
        "alt_km": NaN,
        "orbit_class": "HEO",
        "timestamp": "2025-11-30T09:33:02.588739+00:00"
      },
      "geometry": {
        "type": "Point",
        "coordinates": [
          NaN,
          NaN
        ]
      }
    }
  ]
}