TIANMU-1 17             
1 58702U 24004C   25334.21803628  .00007948  00000+0  32880-3 0  9990
2 58702  97.4607 155.5404 0004581 350.8001   9.3152 15.24221455105430
TIANMU-1 18             
1 58703U 24004D   25334.20127108  .00008187  00000+0  33865-3 0  9992
2 58703  97.4625 155.7162 0003935 352.2641   7.8535 15.24214922105431
INSAT-3DS               
1 58990U 24033A   25333.95099191 -.00000135  00000+0  00000+0 0  9990
2 58990   0.0176 249.8829 0001462   0.2965 243.3977  1.00270338 45079
METEOR-M2 4             
1 59051U 24039A   25334.18402968  .00000056  00000+0  44707-4 0  9999
2 59051  98.6749 291.2910 0007695  33.0963 327.0695 14.22398124 90973
GOES 19                 
1 60133U 24119A   25334.06253258 -.00000227  00000+0  00000+0 0  9998
2 60133   0.0051  67.7166 0001181 231.4963  77.3198  1.00269973  4964
FENGYUN 3H              
1 65815U 25219A   25334.11518330  .00000127  00000+0  80254-4 0  9995
2 65815  98.6565 273.9809 0000694  65.7654 294.3595 14.19899054  9136
